{
  "type": "FeatureCollection",
  "features": [
    {
      "type": "Feature",
      "properties": {
        "norad_id": 32455,
        "name": "FENGYUN 1C DEB",
        "group": "fengyun-1c-debris",
        "lat": 70.02358176347882,
        "lon": 162.77647070485446,
        "alt_km": 770.0710562086497,
        "timestamp": "2025-12-27T14:26:30.808407+00:00",
        "meta_object_name": "FENGYUN 1C DEB",
        "meta_object_id": "1999-025DBT",
        "meta_epoch": "2025-12-19T18:08:22.954272",
        "meta_mean_motion": 13.92504596,
        "meta_eccentricity": 0.02356741,
        "meta_inclination": 101.733,
        "meta_ra_of_asc_node": 187.728,
        "meta_arg_of_pericenter": 127.7857,
        "meta_mean_anomaly": 234.4892,
        "meta_ephemeris_type": 0,
        "meta_classification_type": "U",
        "meta_norad_cat_id": 32455,
        "meta_element_set_no": 999,
        "meta_rev_at_epoch": 64513,
        "meta_bstar": 0.001718498,
        "meta_mean_motion_dot": 2.717e-05,
        "meta_mean_motion_ddot": 0,
        "tle_line1": "1 32455U 99025DBT 25353.75582123  .00002717  00000+0  17185-2 0  9995",
        "tle_line2": "2 32455 101.7330 187.7280 0235674 127.7857 234.4892 13.92504596645138"
      },
      "geometry": {
        "type": "Point",
        "coordinates": [
          162.77647070485446,
          70.02358176347882
        ]
      }
    },
    {
      "type": "Feature",
      "properties": {
        "norad_id": 32456,
        "name": "FENGYUN 1C DEB",
        "group": "fengyun-1c-debris",
        "lat": 30.53024124231471,
        "lon": -24.78728301849087,
        "alt_km": 923.7098958615361,
        "timestamp": "2025-12-27T14:26:30.808418+00:00",
        "meta_object_name": "FENGYUN 1C DEB",
        "meta_object_id": "1999-025DBU",
        "meta_epoch": "2025-12-27T02:53:38.449824",
        "meta_mean_motion": 13.35667003,
        "meta_eccentricity": 0.03790304,
        "meta_inclination": 103.6663,
        "meta_ra_of_asc_node": 146.3208,
        "meta_arg_of_pericenter": 196.3155,
        "meta_mean_anomaly": 162.5469,
        "meta_ephemeris_type": 0,
        "meta_classification_type": "U",
        "meta_norad_cat_id": 32456,
        "meta_element_set_no": 999,
        "meta_rev_at_epoch": 60808,
        "meta_bstar": 0.0021301146,
        "meta_mean_motion_dot": 1.563e-05,
        "meta_mean_motion_ddot": 0,
        "tle_line1": "1 32456U 99025DBU 25361.12058391  .00001563  00000+0  21301-2 0  9994",
        "tle_line2": "2 32456 103.6663 146.3208 0379030 196.3155 162.5469 13.35667003608082"
      },
      "geometry": {
        "type": "Point",
        "coordinates": [
          -24.78728301849087,
          30.53024124231471
        ]
      }
    },
    {
      "type": "Feature",
      "properties": {
        "norad_id": 32458,
        "name": "FENGYUN 1C DEB",
        "group": "fengyun-1c-debris",
        "lat": 71.1746200662373,
        "lon": -129.2622955285333,
        "alt_km": 699.2082121587391,
        "timestamp": "2025-12-27T14:26:30.808428+00:00",
        "meta_object_name": "FENGYUN 1C DEB",
        "meta_object_id": "1999-025DBW",
        "meta_epoch": "2025-12-24T07:08:24.791424",
        "meta_mean_motion": 14.62437066,
        "meta_eccentricity": 0.00398704,
        "meta_inclination": 99.044,
        "meta_ra_of_asc_node": 19.2699,
        "meta_arg_of_pericenter": 338.3215,
        "meta_mean_anomaly": 21.6295,
        "meta_ephemeris_type": 0,
        "meta_classification_type": "U",
        "meta_norad_cat_id": 32458,
        "meta_element_set_no": 999,
        "meta_rev_at_epoch": 67958,
        "meta_bstar": 0.0016307189,
        "meta_mean_motion_dot": 8.3e-05,
        "meta_mean_motion_ddot": 0,
        "tle_line1": "1 32458U 99025DBW 25358.29750916  .00008300  00000+0  16307-2 0  9998",
        "tle_line2": "2 32458  99.0440  19.2699 0039870 338.3215  21.6295 14.62437066679587"
      },
      "geometry": {
        "type": "Point",
        "coordinates": [
          -129.2622955285333,
          71.1746200662373
        ]
      }
    },
    {
      "type": "Feature",
      "properties": {
        "norad_id": 32459,
        "name": "FENGYUN 1C DEB",
        "group": "fengyun-1c-debris",
        "lat": -31.614161194323216,
        "lon": -169.70045268161152,
        "alt_km": 701.2640821196601,
        "timestamp": "2025-12-27T14:26:30.808439+00:00",
        "meta_object_name": "FENGYUN 1C DEB",
        "meta_object_id": "1999-025DBX",
        "meta_epoch": "2025-12-27T06:49:23.575296",
        "meta_mean_motion": 14.42864857,
        "meta_eccentricity": 0.02138259,
        "meta_inclination": 98.3016,
        "meta_ra_of_asc_node": 15.1465,
        "meta_arg_of_pericenter": 142.366,
        "meta_mean_anomaly": 219.2713,
        "meta_ephemeris_type": 0,
        "meta_classification_type": "U",
        "meta_norad_cat_id": 32459,
        "meta_element_set_no": 999,
        "meta_rev_at_epoch": 94760,
        "meta_bstar": 0.00048358351,
        "meta_mean_motion_dot": 2.079e-05,
        "meta_mean_motion_ddot": 0,
        "tle_line1": "1 32459U 99025DBX 25361.28430064  .00002079  00000+0  48358-3 0  9990",
        "tle_line2": "2 32459  98.3016  15.1465 0213825 142.3660 219.2713 14.42864857947607"
      },
      "geometry": {
        "type": "Point",
        "coordinates": [
          -169.70045268161152,
          -31.614161194323216
        ]
      }
    },
    {
      "type": "Feature",
      "properties": {
        "norad_id": 32460,
        "name": "FENGYUN 1C DEB",
        "group": "fengyun-1c-debris",
        "lat": -70.48209808810718,
        "lon": 168.1775248537766,
        "alt_km": 1059.8720829766598,
        "timestamp": "2025-12-27T14:26:30.808449+00:00",
        "meta_object_name": "FENGYUN 1C DEB",
        "meta_object_id": "1999-025DBY",
        "meta_epoch": "2025-12-23T15:45:03.737664",
        "meta_mean_motion": 13.89610403,
        "meta_eccentricity": 0.01859289,
        "meta_inclination": 98.0212,
        "meta_ra_of_asc_node": 141.3333,
        "meta_arg_of_pericenter": 93.8399,
        "meta_mean_anomaly": 268.4041,
        "meta_ephemeris_type": 0,
        "meta_classification_type": "U",
        "meta_norad_cat_id": 32460,
        "meta_element_set_no": 999,
        "meta_rev_at_epoch": 65405,
        "meta_bstar": 0.00093026192,
        "meta_mean_motion_dot": 1.276e-05,
        "meta_mean_motion_ddot": 0,
        "tle_line1": "1 32460U 99025DBY 25357.65629326  .00001276  00000+0  93026-3 0  9999",
        "tle_line2": "2 32460  98.0212 141.3333 0185928  93.8399 268.4041 13.89610403654051"
      },
      "geometry": {
        "type": "Point",
        "coordinates": [
          168.1775248537766,
          -70.48209808810718
        ]
      }
    },
    {
      "type": "Feature",
      "properties": {
        "norad_id": 32461,
        "name": "FENGYUN 1C DEB",
        "group": "fengyun-1c-debris",
        "lat": -36.73194301874726,
        "lon": 28.5895237555075,
        "alt_km": 1125.6633480816909,
        "timestamp": "2025-12-27T14:26:30.808459+00:00",
        "meta_object_name": "FENGYUN 1C DEB",
        "meta_object_id": "1999-025DBZ",
        "meta_epoch": "2025-12-24T02:10:28.329888",
        "meta_mean_motion": 13.72863387,
        "meta_eccentricity": 0.02328242,
        "meta_inclination": 98.3337,
        "meta_ra_of_asc_node": 211.8091,
        "meta_arg_of_pericenter": 86.3573,
        "meta_mean_anomaly": 65.2685,
        "meta_ephemeris_type": 0,
        "meta_classification_type": "U",
        "meta_norad_cat_id": 32461,
        "meta_element_set_no": 999,
        "meta_rev_at_epoch": 67450,
        "meta_bstar": 0.0012271191,
        "meta_mean_motion_dot": 1.339e-05,
        "meta_mean_motion_ddot": 0,
        "tle_line1": "1 32461U 99025DBZ 25358.09060567  .00001339  00000+0  12271-2 0  9997",
        "tle_line2": "2 32461  98.3337 211.8091 0232824  86.3573  65.2685 13.72863387674508"
      },
      "geometry": {
        "type": "Point",
        "coordinates": [
          28.5895237555075,
          -36.73194301874726
        ]
      }
    },
    {
      "type": "Feature",
      "properties": {
        "norad_id": 32464,
        "name": "FENGYUN 1C DEB",
        "group": "fengyun-1c-debris",
        "lat": -62.456002460119095,
        "lon": -169.37591316921376,
        "alt_km": 551.8209883334657,
        "timestamp": "2025-12-27T14:26:30.808470+00:00",
        "meta_object_name": "FENGYUN 1C DEB",
        "meta_object_id": "1999-025DCC",
        "meta_epoch": "2025-12-24T19:25:24.966336",
        "meta_mean_motion": 14.9326332,
        "meta_eccentricity": 0.01127222,
        "meta_inclination": 97.3538,
        "meta_ra_of_asc_node": 22.3485,
        "meta_arg_of_pericenter": 195.2816,
        "meta_mean_anomaly": 164.4991,
        "meta_ephemeris_type": 0,
        "meta_classification_type": "U",
        "meta_norad_cat_id": 32464,
        "meta_element_set_no": 999,
        "meta_rev_at_epoch": 60972,
        "meta_bstar": 0.0013446377,
        "meta_mean_motion_dot": 0.00015905,
        "meta_mean_motion_ddot": 0,
        "tle_line1": "1 32464U 99025DCC 25358.80931674  .00015905  00000+0  13446-2 0  9994",
        "tle_line2": "2 32464  97.3538  22.3485 0112722 195.2816 164.4991 14.93263320609728"
      },
      "geometry": {
        "type": "Point",
        "coordinates": [
          -169.37591316921376,
          -62.456002460119095
        ]
      }
    }
  ]
}